INTERCOSMOS 24          
1 20261U 89080A   25166.77677565  .00001038  00000+0  30327-3 0  9995
2 20261  82.6056 277.9629 1190272 191.8923 165.1619 12.59031974632794
SL-14 R/B               
1 20262U 89080C   25166.78477196  .00000331  00000+0  90376-4 0  9991
2 20262  82.5940 344.5741 1231733  74.8179 298.5542 12.50307740626790
DELTA 1 R/B             
1 20323U 89089B   25166.93400544  .00000272  00000+0  76669-4 0  9991
2 20323  97.1046  51.4116 0067787 244.6585 114.7582 14.50398406857060
ARIANE 40 R/B           
1 20443U 90005H   25166.87590671  .00000272  00000+0  10078-3 0  9999
2 20443  98.3458 229.8882 0008870 289.5122  70.5108 14.39640405854412
DELTA 2 R/B(1)          
1 20453U 90008B   25167.08736277  .00026254  00000+0  59187-3 0  9993
2 20453  35.6098  88.3779 0140019 351.5562   8.2818 15.32570302884950
COSMOS 2058             
1 20465U 90010A   25166.78911512  .00003133  00000+0  19694-3 0  9992
2 20465  82.4767 309.6957 0010163 170.9400 189.2014 15.08878540901960
SL-14 R/B               
1 20466U 90010B   25166.70385800  .00000380  00000+0  43381-4 0  9992
2 20466  82.5016 158.0727 0021534  99.1263 261.2389 14.83260395888902
SL-14 R/B               
1 20511U 90018B   25166.80314712  .00000389  00000+0  46261-4 0  9995
2 20511  82.5211 112.5052 0014917 248.5553 111.4070 14.81846768883051
HST                     
1 20580U 90037B   25166.86804874  .00005049  00000+0  18657-3 0  9996
2 20580  28.4692  53.8560 0002630  76.5975 283.4912 15.25313538732484
SL-16 R/B               
1 20625U 90046B   25166.61891928 -.00000048  00000+0 -20964-6 0  9998
2 20625  70.9971 138.7850 0014665 341.9231  18.1368 14.14962638810614
COSMOS 2084             
1 20663U 90055A   25166.48303251  .00001952  00000+0  15103-3 0  9991
2 20663  62.7885 165.4712 0061197 154.3420 206.0739 15.03682373896125
SL-6 R/B(2)             
1 20666U 90055D   25166.86897248  .00001657  00000+0  13992-3 0  9996
2 20666  62.7842  80.0104 0026678 191.1706 168.8804 15.02032519898095
SL-8 R/B                
1 20775U 90078B   25166.39666507  .00009392  00000+0  31169-3 0  9992
2 20775  82.9078 129.5563 0401975 185.4649 174.2121 14.78332822769674
SL-8 R/B                
1 21088U 91006B   25167.06769709  .00000120  00000+0  10473-3 0  9990
2 21088  82.9425   8.3890 0023763  63.6213 110.0128 13.77457752727637
OKEAN-3                 
1 21397U 91039A   25166.90159110  .00002028  00000+0  14928-3 0  9998
2 21397  82.5171 234.8742 0015755 153.3545 206.8494 15.02776335824946
COSMOS 2151             
1 21422U 91042A   25167.08260275  .00001604  00000+0  13067-3 0  9998
2 21422  82.4970 340.5148 0011295 237.0660 122.9478 14.98848354844395
SL-14 R/B               
1 21423U 91042B   25166.80135561  .00000412  00000+0  49450-4 0  9999
2 21423  82.4929 110.4203 0018193  42.1128 318.1480 14.81545247813557
ERS-1                   
1 21574U 91050A   25167.02881274  .00000209  00000+0  82141-4 0  9997
2 21574  98.7910 173.5232 0030845 273.4420  86.3239 14.39198887777358
ARIANE 40 R/B           
1 21610U 91050F   25166.88115655  .00000318  00000+0  10828-3 0  9997
2 21610  98.2392 223.5354 0003839 144.2131 215.9318 14.42638079780523
INTERCOSMOS 25          
1 21819U 91086A   25166.58247689  .00001925  00000+0  38148-3 0  9997
2 21819  82.6035 111.4115 1489997 332.4325  20.4790 12.11053320464341
SL-8 R/B                
1 21876U 92008B   25166.76363944  .00000104  00000+0  91265-4 0  9996
2 21876  82.9266 106.2932 0035107 157.9431 212.8280 13.75933677672715
SL-8 R/B                
1 21938U 92020B   25166.58332168  .00000137  00000+0  12682-3 0  9994
2 21938  82.9304 352.1353 0028267 325.7785  66.5938 13.75508788664415
USA 81                  
1 21949U 92023A   25166.78996918  .00000188  00000+0  62474-4 0  9991
2 21949  85.0077 285.3847 0002322 111.6644 248.4796 14.32245297 56586
COSMOS 2219             
1 22219U 92076A   25166.83199534 -.00000046  00000+0  55453-6 0  9990
2 22219  71.0585 215.8959 0020140 249.6681 110.2278 14.14022620680654
SL-16 R/B               
1 22220U 92076B   25166.88504644  .00000105  00000+0  76184-4 0  9996
2 22220  71.0007  30.3711 0011691 150.2303 220.9693 14.16805072684049
COSMOS 2221             
1 22236U 92080A   25166.73584888  .00001567  00000+0  14119-3 0  9992
2 22236  82.5038 174.4465 0015027  16.0228 344.1465 14.94883669740891
SL-16 R/B               
1 22285U 92093B   25166.81319881 -.00000255  00000+0 -10650-3 0  9999
2 22285  71.0202 204.4872 0005093 326.9053  33.1750 14.15396406675393
COSMOS 2228             
1 22286U 92094A   25166.84982077  .00001915  00000+0  16904-3 0  9997
2 22286  82.5177 132.4812 0020169 117.6381 242.6892 14.95720270736150
SL-16 R/B               
1 22566U 93016B   25167.10991832 -.00000236  00000+0 -96596-4 0  9995
2 22566  71.0081  55.0589 0010173 356.3681   3.7366 14.15257464664466
COSMOS 2242             
1 22626U 93024A   25166.92652448  .00001682  00000+0  15039-3 0  9993
2 22626  82.5184 161.5360 0018314 119.6944 240.6103 14.95172002740515
SL-16 R/B               
1 22803U 93059B   25166.81567038  .00000183  00000+0  11447-3 0  9990
2 22803  70.9892 213.8862 0019347 258.3561 101.5391 14.17174969641725
ARIANE 40 R/B           
1 22830U 93061H   25167.13626187  .00000213  00000+0  94298-4 0  9990
2 22830  98.5266 235.7219 0010542 359.9866   0.1316 14.32665213656180
COSMOS 2278             
1 23087U 94023A   25167.03218693  .00000377  00000+0  22194-3 0  9998
2 23087  71.0543  12.9613 0007079  72.9367 287.2531 14.14302799607350
SL-16 R/B               
1 23088U 94023B   25166.63669223 -.00000169  00000+0 -62489-4 0  9996
2 23088  71.0000 271.6993 0004460 314.2730  45.8027 14.14964517608318
SL-16 R/B               
1 23343U 94074B   25166.53359060  .00000402  00000+0  61105-4 0  9992
2 23343  97.7388 202.7546 0007073  23.5759  63.5807 14.79044640647750
SL-16 R/B               
1 23405U 94077B   25166.51041513 -.00000199  00000+0 -77209-4 0  9990
2 23405  70.9815 194.5615 0004350 240.0451 120.0240 14.15521788578422
ARIANE 40+ R/B          
1 23561U 95021B   25166.95178924  .00000284  00000+0  10515-3 0  9997
2 23561  98.4834 236.5111 0006117 211.6014 321.4243 14.39534322580866
SL-16 R/B               
1 23705U 95058B   25166.85746926  .00000033  00000+0  41075-4 0  9997
2 23705  71.0216  20.4465 0012389 175.9258 184.1968 14.15447848530097
SL-16 R/B               
1 24298U 96051B   25167.02565274 -.00000168  00000+0 -64354-4 0  9990
2 24298  70.7685  19.6035 0015550 177.3056 182.8150 14.12415312484251
ORBVIEW 2 (SEASTAR)     
1 24883U 97037A   25167.13205129  .00000256  00000+0  10562-3 0  9994
2 24883  98.8263 319.9196 0003247 115.1378 245.0144 14.35254722470492
SL-16 R/B               
1 25400U 98043G   25166.75210747  .00000052  00000+0  40693-4 0  9990
2 25400  98.7878 113.8570 0010926  70.9847 289.2515 14.25972985400949
SL-16 R/B               
1 25407U 98045B   25166.85783944  .00000188  00000+0  11917-3 0  9990
2 25407  71.0117  22.6945 0005509  66.5259 293.6443 14.16140360389329
ISS (ZARYA)             
1 25544U 98067A   25167.44311275  .00010511  00000+0  19030-3 0  9991
2 25544  51.6384 310.7633 0001081 247.7236 212.2756 15.50236701515043
CZ-4B R/B               
1 25732U 99025C   25166.86620153  .00000058  00000+0  48930-4 0  9995
2 25732  98.6992 211.8831 0037737  33.5499 139.2703 14.18192501350340
OKEAN-O                 
1 25860U 99039A   25166.87755345  .00000620  00000+0  89238-4 0  9996
2 25860  97.9832 223.8826 0001974 100.6473 259.4960 14.79806323394929
SL-16 R/B               
1 25861U 99039B   25166.71162468  .00000537  00000+0  75712-4 0  9997
2 25861  98.0358 220.5836 0015908  47.1834 313.0712 14.81285228397460
DELTA 2 R/B             
1 25876U 99041E   25166.81098905  .00000559  00000+0  12873-3 0  9993
2 25876  51.7661 286.2625 0506293 281.3881  73.0607 14.10741586325340
HELIOS 1B               
1 25977U 99064A   25167.11448511  .00001202  00000+0  14244-3 0  9996
2 25977  98.1953  56.4335 0001171 135.9532 224.1776 14.86490265376944
TERRA                   
1 25994U 99068A   25167.13130300  .00000402  00000+0  91732-4 0  9994
2 25994  97.9979 225.1300 0001288 340.8453  47.5488 14.60710985356281
SL-16 R/B               
1 26070U 00006B   25166.73354348 -.00000107  00000+0 -30021-4 0  9997
2 26070  71.0033 299.1264 0018317 232.9836 126.9612 14.15778607310778
TITAN 4B R/B            
1 26474U 00047B   25166.91400152  .00003111  00000+0  21016-3 0  9994
2 26474  67.9903  69.1772 0045166 334.6187  25.2742 15.07216050352688
ENVISAT                 
1 27386U 02009A   25166.86889711  .00000086  00000+0  41792-4 0  9995
2 27386  98.3337 122.4759 0001358  90.1541 280.1988 14.38920792220801
IDEFIX & ARIANE 42P R/B 
1 27422U 02021B   25166.72822476  .00000214  00000+0  98390-4 0  9999
2 27422  98.5612 104.0094 0010639 252.6765 107.3255 14.30795379205840
AQUA                    
1 27424U 02022A   25167.19267799  .00000794  00000+0  17070-3 0  9993
2 27424  98.3778 125.5305 0002004  69.1845  58.0723 14.61305143229841
CZ-4B R/B               
1 27432U 02024C   25167.11207722  .00000059  00000+0  53337-4 0  9997
2 27432  98.9230 216.2244 0051092  60.3720 327.0772 14.14486972191631
MIDORI II (ADEOS-II)    
1 27597U 02056A   25166.50198523  .00000289  00000+0  13185-3 0  9995
2 27597  98.7380 118.8235 0002155  71.7238 288.4178 14.29051518172134
H-2A R/B                
1 27601U 02056E   25166.87904244  .00000215  00000+0  90598-4 0  9999
2 27601  98.2789 133.1076 0069322 236.3728 143.4027 14.33511994175885
CZ-4B R/B               
1 28059U 03049C   25167.21998678  .00000334  00000+0  88762-4 0  9995
2 28059  98.6589 147.2021 0047786 326.2357  33.5798 14.54688616147835
CZ-2C R/B               
1 28222U 04012C   25166.68371778  .00013307  00000+0  28687-3 0  9997
2 28222  97.7654 206.0009 0023145 197.5004 162.5449 15.44431992162859
